<?xml version="1.0" encoding="UTF-8"?>
<ndm xmlns:xsi="http://www.w3.org/2001/XMLSchema-instance" xsi:noNamespaceSchemaLocation="https://sanaregistry.org/r/ndmxml_unqualified/ndmxml-2.0.0-master-2.0.xsd">
<omm id="CCSDS_OMM_VERS" version="2.0">
<header><CREATION_DATE/><ORIGINATOR/></header><body><segment><metadata><OBJECT_NAME>ONEWEB-0620</OBJECT_NAME><OBJECT_ID>2023-004X</OBJECT_ID><CENTER_NAME>EARTH</CENTER_NAME><REF_FRAME>TEME</REF_FRAME><TIME_SYSTEM>UTC</TIME_SYSTEM><MEAN_ELEMENT_THEORY>SGP4</MEAN_ELEMENT_THEORY></metadata><data><meanElements><EPOCH>2024-06-25T23:32:50.959968</EPOCH><MEAN_MOTION>13.11414640</MEAN_MOTION><ECCENTRICITY>.0001531</ECCENTRICITY><INCLINATION>87.8961</INCLINATION><RA_OF_ASC_NODE>164.6233</RA_OF_ASC_NODE><ARG_OF_PERICENTER>86.2344</ARG_OF_PERICENTER><MEAN_ANOMALY>273.8959</MEAN_ANOMALY></meanElements><tleParameters><EPHEMERIS_TYPE>0</EPHEMERIS_TYPE><CLASSIFICATION_TYPE>U</CLASSIFICATION_TYPE><NORAD_CAT_ID>55161</NORAD_CAT_ID><ELEMENT_SET_NO>999</ELEMENT_SET_NO><REV_AT_EPOCH>7130</REV_AT_EPOCH><BSTAR>-.78067E-3</BSTAR><MEAN_MOTION_DOT>-.264E-5</MEAN_MOTION_DOT><MEAN_MOTION_DDOT>0</MEAN_MOTION_DDOT></tleParameters></data></segment></body></omm>
<omm id="CCSDS_OMM_VERS" version="2.0">
<header><CREATION_DATE/><ORIGINATOR/></header><body><segment><metadata><OBJECT_NAME>ONEWEB-0621</OBJECT_NAME><OBJECT_ID>2023-004Y</OBJECT_ID><CENTER_NAME>EARTH</CENTER_NAME><REF_FRAME>TEME</REF_FRAME><TIME_SYSTEM>UTC</TIME_SYSTEM><MEAN_ELEMENT_THEORY>SGP4</MEAN_ELEMENT_THEORY></metadata><data><meanElements><EPOCH>2024-06-26T00:11:54.573792</EPOCH><MEAN_MOTION>13.11418423</MEAN_MOTION><ECCENTRICITY>.0002185</ECCENTRICITY><INCLINATION>87.8960</INCLINATION><RA_OF_ASC_NODE>164.5869</RA_OF_ASC_NODE><ARG_OF_PERICENTER>95.3032</ARG_OF_PERICENTER><MEAN_ANOMALY>264.8346</MEAN_ANOMALY></meanElements><tleParameters><EPHEMERIS_TYPE>0</EPHEMERIS_TYPE><CLASSIFICATION_TYPE>U</CLASSIFICATION_TYPE><NORAD_CAT_ID>55162</NORAD_CAT_ID><ELEMENT_SET_NO>999</ELEMENT_SET_NO><REV_AT_EPOCH>7131</REV_AT_EPOCH><BSTAR>-.45911E-3</BSTAR><MEAN_MOTION_DOT>-.15E-5</MEAN_MOTION_DOT><MEAN_MOTION_DDOT>0</MEAN_MOTION_DDOT></tleParameters></data></segment></body></omm>
<omm id="CCSDS_OMM_VERS" version="2.0">
<header><CREATION_DATE/><ORIGINATOR/></header><body><segment><metadata><OBJECT_NAME>ONEWEB-0622</OBJECT_NAME><OBJECT_ID>2023-004Z</OBJECT_ID><CENTER_NAME>EARTH</CENTER_NAME><REF_FRAME>TEME</REF_FRAME><TIME_SYSTEM>UTC</TIME_SYSTEM><MEAN_ELEMENT_THEORY>SGP4</MEAN_ELEMENT_THEORY></metadata><data><meanElements><EPOCH>2024-06-26T00:19:14.926944</EPOCH><MEAN_MOTION>13.11418501</MEAN_MOTION><ECCENTRICITY>.0001333</ECCENTRICITY><INCLINATION>87.8961</INCLINATION><RA_OF_ASC_NODE>164.6019</RA_OF_ASC_NODE><ARG_OF_PERICENTER>107.5971</ARG_OF_PERICENTER><MEAN_ANOMALY>252.5303</MEAN_ANOMALY></meanElements><tleParameters><EPHEMERIS_TYPE>0</EPHEMERIS_TYPE><CLASSIFICATION_TYPE>U</CLASSIFICATION_TYPE><NORAD_CAT_ID>55163</NORAD_CAT_ID><ELEMENT_SET_NO>999</ELEMENT_SET_NO><REV_AT_EPOCH>7128</REV_AT_EPOCH><BSTAR>.24838E-3</BSTAR><MEAN_MOTION_DOT>.101E-5</MEAN_MOTION_DOT><MEAN_MOTION_DDOT>0</MEAN_MOTION_DDOT></tleParameters></data></segment></body></omm>
<omm id="CCSDS_OMM_VERS" version="2.0">
<header><CREATION_DATE/><ORIGINATOR/></header><body><segment><metadata><OBJECT_NAME>ONEWEB-0623</OBJECT_NAME><OBJECT_ID>2023-004AA</OBJECT_ID><CENTER_NAME>EARTH</CENTER_NAME><REF_FRAME>TEME</REF_FRAME><TIME_SYSTEM>UTC</TIME_SYSTEM><MEAN_ELEMENT_THEORY>SGP4</MEAN_ELEMENT_THEORY></metadata><data><meanElements><EPOCH>2024-06-25T22:17:09.750912</EPOCH><MEAN_MOTION>13.17649378</MEAN_MOTION><ECCENTRICITY>.0001663</ECCENTRICITY><INCLINATION>87.9172</INCLINATION><RA_OF_ASC_NODE>149.4783</RA_OF_ASC_NODE><ARG_OF_PERICENTER>109.4738</ARG_OF_PERICENTER><MEAN_ANOMALY>250.6573</MEAN_ANOMALY></meanElements><tleParameters><EPHEMERIS_TYPE>0</EPHEMERIS_TYPE><CLASSIFICATION_TYPE>U</CLASSIFICATION_TYPE><NORAD_CAT_ID>55164</NORAD_CAT_ID><ELEMENT_SET_NO>999</ELEMENT_SET_NO><REV_AT_EPOCH>7260</REV_AT_EPOCH><BSTAR>-.15252E-3</BSTAR><MEAN_MOTION_DOT>-.46E-6</MEAN_MOTION_DOT><MEAN_MOTION_DDOT>0</MEAN_MOTION_DDOT></tleParameters></data></segment></body></omm>
<omm id="CCSDS_OMM_VERS" version="2.0">
<header><CREATION_DATE/><ORIGINATOR/></header><body><segment><metadata><OBJECT_NAME>ONEWEB-0624</OBJECT_NAME><OBJECT_ID>2023-004AB</OBJECT_ID><CENTER_NAME>EARTH</CENTER_NAME><REF_FRAME>TEME</REF_FRAME><TIME_SYSTEM>UTC</TIME_SYSTEM><MEAN_ELEMENT_THEORY>SGP4</MEAN_ELEMENT_THEORY></metadata><data><meanElements><EPOCH>2024-06-26T03:26:52.939392</EPOCH><MEAN_MOTION>13.12441679</MEAN_MOTION><ECCENTRICITY>.0001993</ECCENTRICITY><INCLINATION>87.8950</INCLINATION><RA_OF_ASC_NODE>134.2223</RA_OF_ASC_NODE><ARG_OF_PERICENTER>87.9175</ARG_OF_PERICENTER><MEAN_ANOMALY>272.2182</MEAN_ANOMALY></meanElements><tleParameters><EPHEMERIS_TYPE>0</EPHEMERIS_TYPE><CLASSIFICATION_TYPE>U</CLASSIFICATION_TYPE><NORAD_CAT_ID>55165</NORAD_CAT_ID><ELEMENT_SET_NO>999</ELEMENT_SET_NO><REV_AT_EPOCH>7347</REV_AT_EPOCH><BSTAR>-.9625E-3</BSTAR><MEAN_MOTION_DOT>-.334E-5</MEAN_MOTION_DOT><MEAN_MOTION_DDOT>0</MEAN_MOTION_DDOT></tleParameters></data></segment></body></omm>
<omm id="CCSDS_OMM_VERS" version="2.0">
<header><CREATION_DATE/><ORIGINATOR/></header><body><segment><metadata><OBJECT_NAME>ONEWEB-0625</OBJECT_NAME><OBJECT_ID>2023-004AC</OBJECT_ID><CENTER_NAME>EARTH</CENTER_NAME><REF_FRAME>TEME</REF_FRAME><TIME_SYSTEM>UTC</TIME_SYSTEM><MEAN_ELEMENT_THEORY>SGP4</MEAN_ELEMENT_THEORY></metadata><data><meanElements><EPOCH>2024-06-25T23:50:11.111424</EPOCH><MEAN_MOTION>13.17671014</MEAN_MOTION><ECCENTRICITY>.0002519</ECCENTRICITY><INCLINATION>87.9175</INCLINATION><RA_OF_ASC_NODE>149.4654</RA_OF_ASC_NODE><ARG_OF_PERICENTER>87.9953</ARG_OF_PERICENTER><MEAN_ANOMALY>272.1466</MEAN_ANOMALY></meanElements><tleParameters><EPHEMERIS_TYPE>0</EPHEMERIS_TYPE><CLASSIFICATION_TYPE>U</CLASSIFICATION_TYPE><NORAD_CAT_ID>55166</NORAD_CAT_ID><ELEMENT_SET_NO>999</ELEMENT_SET_NO><REV_AT_EPOCH>7260</REV_AT_EPOCH><BSTAR>-.85991E-2</BSTAR><MEAN_MOTION_DOT>-.3326E-4</MEAN_MOTION_DOT><MEAN_MOTION_DDOT>0</MEAN_MOTION_DDOT></tleParameters></data></segment></body></omm>
<omm id="CCSDS_OMM_VERS" version="2.0">
<header><CREATION_DATE/><ORIGINATOR/></header><body><segment><metadata><OBJECT_NAME>ONEWEB-0626</OBJECT_NAME><OBJECT_ID>2023-004AD</OBJECT_ID><CENTER_NAME>EARTH</CENTER_NAME><REF_FRAME>TEME</REF_FRAME><TIME_SYSTEM>UTC</TIME_SYSTEM><MEAN_ELEMENT_THEORY>SGP4</MEAN_ELEMENT_THEORY></metadata><data><meanElements><EPOCH>2024-06-25T21:46:55.346592</EPOCH><MEAN_MOTION>13.17678875</MEAN_MOTION><ECCENTRICITY>.000154</ECCENTRICITY><INCLINATION>87.9170</INCLINATION><RA_OF_ASC_NODE>149.4812</RA_OF_ASC_NODE><ARG_OF_PERICENTER>73.0622</ARG_OF_PERICENTER><MEAN_ANOMALY>287.0678</MEAN_ANOMALY></meanElements><tleParameters><EPHEMERIS_TYPE>0</EPHEMERIS_TYPE><CLASSIFICATION_TYPE>U</CLASSIFICATION_TYPE><NORAD_CAT_ID>55167</NORAD_CAT_ID><ELEMENT_SET_NO>999</ELEMENT_SET_NO><REV_AT_EPOCH>7259</REV_AT_EPOCH><BSTAR>-.14846E-1</BSTAR><MEAN_MOTION_DOT>-.575E-4</MEAN_MOTION_DOT><MEAN_MOTION_DDOT>0</MEAN_MOTION_DDOT></tleParameters></data></segment></body></omm>
<omm id="CCSDS_OMM_VERS" version="2.0">
<header><CREATION_DATE/><ORIGINATOR/></header><body><segment><metadata><OBJECT_NAME>ONEWEB-0627</OBJECT_NAME><OBJECT_ID>2023-004AE</OBJECT_ID><CENTER_NAME>EARTH</CENTER_NAME><REF_FRAME>TEME</REF_FRAME><TIME_SYSTEM>UTC</TIME_SYSTEM><MEAN_ELEMENT_THEORY>SGP4</MEAN_ELEMENT_THEORY></metadata><data><meanElements><EPOCH>2024-06-26T04:48:00.580608</EPOCH><MEAN_MOTION>13.17694542</MEAN_MOTION><ECCENTRICITY>.0001641</ECCENTRICITY><INCLINATION>87.9170</INCLINATION><RA_OF_ASC_NODE>149.4248</RA_OF_ASC_NODE><ARG_OF_PERICENTER>98.7145</ARG_OF_PERICENTER><MEAN_ANOMALY>261.4172</MEAN_ANOMALY></meanElements><tleParameters><EPHEMERIS_TYPE>0</EPHEMERIS_TYPE><CLASSIFICATION_TYPE>U</CLASSIFICATION_TYPE><NORAD_CAT_ID>55168</NORAD_CAT_ID><ELEMENT_SET_NO>999</ELEMENT_SET_NO><REV_AT_EPOCH>7263</REV_AT_EPOCH><BSTAR>-.21492E-1</BSTAR><MEAN_MOTION_DOT>-.833E-4</MEAN_MOTION_DOT><MEAN_MOTION_DDOT>0</MEAN_MOTION_DDOT></tleParameters></data></segment></body></omm>

</ndm>
