ONEWEB-0620             
1 55161U 23004X   24177.98114537 -.00000264  00000+0 -78067-3 0  9990
2 55161  87.8961 164.6233 0001531  86.2344 273.8959 13.11414640 71300
ONEWEB-0621             
1 55162U 23004Y   24178.00827053 -.00000150  00000+0 -45911-3 0  9995
2 55162  87.8960 164.5869 0002185  95.3032 264.8346 13.11418423 71319
ONEWEB-0622             
1 55163U 23004Z   24178.01336721  .00000101  00000+0  24838-3 0  9993
2 55163  87.8961 164.6019 0001333 107.5971 252.5303 13.11418501 71281
ONEWEB-0623             
1 55164U 23004AA  24177.92858508 -.00000046  00000+0 -15252-3 0  9995
2 55164  87.9172 149.4783 0001663 109.4738 250.6573 13.17649378 72603
ONEWEB-0624             
1 55165U 23004AB  24178.14366828 -.00000334  00000+0 -96250-3 0  9997
2 55165  87.8950 134.2223 0001993  87.9175 272.2182 13.12441679 73470
ONEWEB-0625             
1 55166U 23004AC  24177.99318416 -.00003326  00000+0 -85991-2 0  9993
2 55166  87.9175 149.4654 0002519  87.9953 272.1466 13.17671014 72607
ONEWEB-0626             
1 55167U 23004AD  24177.90758503 -.00005750  00000+0 -14846-1 0  9993
2 55167  87.9170 149.4812 0001540  73.0622 287.0678 13.17678875 72591
ONEWEB-0627             
1 55168U 23004AE  24178.20000672 -.00008330  00000+0 -21492-1 0  9997
2 55168  87.9170 149.4248 0001641  98.7145 261.4172 13.17694542 72630
